{
  "type": "FeatureCollection",
  "features": [
    {
      "type": "Feature",
      "properties": {
        "norad_id": 37836,
        "name": "EUTELSAT 16A",
        "group": "eutelsat",
        "lat": 0.07302774457956239,
        "lon": 77.84862748451798,
        "alt_km": 35811.271280223315,
        "timestamp": "2025-12-11T22:43:46.943374+00:00",
        "meta_object_name": "EUTELSAT 16A",
        "meta_object_id": "2011-057A",
        "meta_epoch": "2025-12-11T13:35:14.627328",
        "meta_mean_motion": 1.00271853,
        "meta_eccentricity": 0.00060082,
        "meta_inclination": 0.0589,
        "meta_ra_of_asc_node": 7.0595,
        "meta_arg_of_pericenter": 257.5427,
        "meta_mean_anomaly": 35.7328,
        "meta_ephemeris_type": 0,
        "meta_classification_type": "U",
        "meta_norad_cat_id": 37836,
        "meta_element_set_no": 999,
        "meta_rev_at_epoch": 544,
        "meta_bstar": 0,
        "meta_mean_motion_dot": 1.11e-06,
        "meta_mean_motion_ddot": 0,
        "tle_line1": "1 37836U 11057A   25345.56614152  .00000111  00000+0  00000+0 0  9991",
        "tle_line2": "2 37836   0.0589   7.0595 0006008 257.5427  35.7328  1.00271853  5441"
      },
      "geometry": {
        "type": "Point",
        "coordinates": [
          77.84862748451798,
          0.07302774457956239
        ]
      }
    },
    {
      "type": "Feature",
      "properties": {
        "norad_id": 38992,
        "name": "EUTELSAT 21B",
        "group": "eutelsat",
        "lat": 0.0828122175671006,
        "lon": 83.44152346968927,
        "alt_km": 35799.97475775116,
        "timestamp": "2025-12-11T22:43:46.943385+00:00",
        "meta_object_name": "EUTELSAT 21B",
        "meta_object_id": "2012-062B",
        "meta_epoch": "2025-12-11T13:36:51.971616",
        "meta_mean_motion": 1.00271966,
        "meta_eccentricity": 0.00033294,
        "meta_inclination": 0.0665,
        "meta_ra_of_asc_node": 3.3539,
        "meta_arg_of_pericenter": 266.6326,
        "meta_mean_anomaly": 36.3517,
        "meta_ephemeris_type": 0,
        "meta_classification_type": "U",
        "meta_norad_cat_id": 38992,
        "meta_element_set_no": 999,
        "meta_rev_at_epoch": 4794,
        "meta_bstar": 0,
        "meta_mean_motion_dot": 1.37e-06,
        "meta_mean_motion_ddot": 0,
        "tle_line1": "1 38992U 12062B   25345.56726819  .00000137  00000+0  00000+0 0  9994",
        "tle_line2": "2 38992   0.0665   3.3539 0003329 266.6326  36.3517  1.00271966 47942"
      },
      "geometry": {
        "type": "Point",
        "coordinates": [
          83.44152346968927,
          0.0828122175671006
        ]
      }
    },
    {
      "type": "Feature",
      "properties": {
        "norad_id": 39020,
        "name": "EUTELSAT 70B",
        "group": "eutelsat",
        "lat": 0.03936834452917567,
        "lon": 132.31564064357153,
        "alt_km": 35793.28016213959,
        "timestamp": "2025-12-11T22:43:46.943399+00:00",
        "meta_object_name": "EUTELSAT 70B",
        "meta_object_id": "2012-069A",
        "meta_epoch": "2025-12-11T08:42:27.382752",
        "meta_mean_motion": 1.00271829,
        "meta_eccentricity": 0.00043647,
        "meta_inclination": 0.063,
        "meta_ra_of_asc_node": 342.5267,
        "meta_arg_of_pericenter": 262.743,
        "meta_mean_anomaly": 36.1894,
        "meta_ephemeris_type": 0,
        "meta_classification_type": "U",
        "meta_norad_cat_id": 39020,
        "meta_element_set_no": 999,
        "meta_rev_at_epoch": 4762,
        "meta_bstar": 0,
        "meta_mean_motion_dot": -3.7e-07,
        "meta_mean_motion_ddot": 0,
        "tle_line1": "1 39020U 12069A   25345.36281693 -.00000037  00000+0  00000+0 0  9998",
        "tle_line2": "2 39020   0.0630 342.5267 0004364 262.7430  36.1894  1.00271829 47625"
      },
      "geometry": {
        "type": "Point",
        "coordinates": [
          132.31564064357153,
          0.03936834452917567
        ]
      }
    },
    {
      "type": "Feature",
      "properties": {
        "norad_id": 39122,
        "name": "EUTELSAT 117 WEST A",
        "group": "eutelsat",
        "lat": -0.02281986716740769,
        "lon": -54.94249742358203,
        "alt_km": 35776.81698225807,
        "timestamp": "2025-12-11T22:43:46.943412+00:00",
        "meta_object_name": "EUTELSAT 117 WEST A",
        "meta_object_id": "2013-012A",
        "meta_epoch": "2025-12-11T11:14:33.966816",
        "meta_mean_motion": 1.00271332,
        "meta_eccentricity": 0.00029746,
        "meta_inclination": 0.0138,
        "meta_ra_of_asc_node": 4.2554,
        "meta_arg_of_pericenter": 258.9766,
        "meta_mean_anomaly": 229.0323,
        "meta_ephemeris_type": 0,
        "meta_classification_type": "U",
        "meta_norad_cat_id": 39122,
        "meta_element_set_no": 999,
        "meta_rev_at_epoch": 4655,
        "meta_bstar": 0,
        "meta_mean_motion_dot": -6e-08,
        "meta_mean_motion_ddot": 0,
        "tle_line1": "1 39122U 13012A   25345.46844869 -.00000006  00000+0  00000+0 0  9997",
        "tle_line2": "2 39122   0.0138   4.2554 0002974 258.9766 229.0323  1.00271332 46556"
      },
      "geometry": {
        "type": "Point",
        "coordinates": [
          -54.94249742358203,
          -0.02281986716740769
        ]
      }
    },
    {
      "type": "Feature",
      "properties": {
        "norad_id": 39163,
        "name": "EUTELSAT 7B",
        "group": "eutelsat",
        "lat": 0.07243553562618248,
        "lon": 68.8828406605498,
        "alt_km": 35793.261759877845,
        "timestamp": "2025-12-11T22:43:46.943425+00:00",
        "meta_object_name": "EUTELSAT 7B",
        "meta_object_id": "2013-022A",
        "meta_epoch": "2025-12-11T13:32:37.377600",
        "meta_mean_motion": 1.00272561,
        "meta_eccentricity": 0.00046066,
        "meta_inclination": 0.0725,
        "meta_ra_of_asc_node": 19.1801,
        "meta_arg_of_pericenter": 297.3227,
        "meta_mean_anomaly": 334.1679,
        "meta_ephemeris_type": 0,
        "meta_classification_type": "U",
        "meta_norad_cat_id": 39163,
        "meta_element_set_no": 999,
        "meta_rev_at_epoch": 4607,
        "meta_bstar": 0,
        "meta_mean_motion_dot": 5.5e-07,
        "meta_mean_motion_ddot": 0,
        "tle_line1": "1 39163U 13022A   25345.56432150  .00000055  00000+0  00000+0 0  9993",
        "tle_line2": "2 39163   0.0725  19.1801 0004606 297.3227 334.1679  1.00272561 46070"
      },
      "geometry": {
        "type": "Point",
        "coordinates": [
          68.8828406605498,
          0.07243553562618248
        ]
      }
    },
    {
      "type": "Feature",
      "properties": {
        "norad_id": 39612,
        "name": "EXPRESS-AT1",
        "group": "eutelsat",
        "lat": 0.00779858063504027,
        "lon": 117.82732152916024,
        "alt_km": 35786.309530918516,
        "timestamp": "2025-12-11T22:43:46.943447+00:00",
        "meta_object_name": "EXPRESS-AT1",
        "meta_object_id": "2014-010A",
        "meta_epoch": "2025-12-11T15:29:26.191392",
        "meta_mean_motion": 1.00271326,
        "meta_eccentricity": 4.173e-05,
        "meta_inclination": 0.0163,
        "meta_ra_of_asc_node": 298.4962,
        "meta_arg_of_pericenter": 273.1745,
        "meta_mean_anomaly": 157.2829,
        "meta_ephemeris_type": 0,
        "meta_classification_type": "U",
        "meta_norad_cat_id": 39612,
        "meta_element_set_no": 999,
        "meta_rev_at_epoch": 4293,
        "meta_bstar": 0,
        "meta_mean_motion_dot": 8.6e-07,
        "meta_mean_motion_ddot": 0,
        "tle_line1": "1 39612U 14010A   25345.64544203  .00000086  00000+0  00000+0 0  9996",
        "tle_line2": "2 39612   0.0163 298.4962 0000417 273.1745 157.2829  1.00271326 42938"
      },
      "geometry": {
        "type": "Point",
        "coordinates": [
          117.82732152916024,
          0.00779858063504027
        ]
      }
    },
    {
      "type": "Feature",
      "properties": {
        "norad_id": 39613,
        "name": "EXPRESS-AT2",
        "group": "eutelsat",
        "lat": -0.031209912612562944,
        "lon": -158.30900454266998,
        "alt_km": 35784.65986419494,
        "timestamp": "2025-12-11T22:43:46.943470+00:00",
        "meta_object_name": "EXPRESS-AT2",
        "meta_object_id": "2014-010B",
        "meta_epoch": "2025-12-11T14:10:33.743712",
        "meta_mean_motion": 1.00271711,
        "meta_eccentricity": 0.00014336,
        "meta_inclination": 0.0193,
        "meta_ra_of_asc_node": 312.623,
        "meta_arg_of_pericenter": 324.9956,
        "meta_mean_anomaly": 155.4371,
        "meta_ephemeris_type": 0,
        "meta_classification_type": "U",
        "meta_norad_cat_id": 39613,
        "meta_element_set_no": 999,
        "meta_rev_at_epoch": 4261,
        "meta_bstar": 0,
        "meta_mean_motion_dot": -2.74e-06,
        "meta_mean_motion_ddot": 0,
        "tle_line1": "1 39613U 14010B   25345.59066833 -.00000274  00000+0  00000+0 0  9999",
        "tle_line2": "2 39613   0.0193 312.6230 0001433 324.9956 155.4371  1.00271711 42612"
      },
      "geometry": {
        "type": "Point",
        "coordinates": [
          -158.30900454266998,
          -0.031209912612562944
        ]
      }
    }
  ]
}